{
  "norad_id": 58844,
  "name": "STARLINK-31269",
  "history": [
    {
      "epoch": "2026-03-28T18:59:21.303456",
      "apogee_km": 475.84814240230025,
      "perigee_km": 474.5196946754513,
      "latitude_deg": -52.68632469225931,
      "longitude_deg": 140.35700383991934,
      "semi_major_axis_km": 6853.320918538875,
      "eccentricity": 9.692e-05,
      "inclination_deg": 53.1598,
      "raan_deg": 205.7195,
      "arg_perigee_deg": 76.0468,
      "mean_anomaly_deg": 284.0641,
      "mean_motion_rev_day": 15.30210433
    }
  ]
}