{"fetched_at":"2026-03-29T16:36:15Z","count":15609,"tles":[{"name":"STARLINK-31269","line1":"1 58844U 24017U   26087.79121879 -.00000818  00000+0 -15490-4 0  9991","line2":"2 58844  53.1598 205.7195 0000969  76.0468 284.0641 15.30210433121692","category":"Starlink"}]}